{
    "week": 293,
    "satellites": [
        {
            "Name": "BEIDOU-3 M24 (C46)",
            "Line1": "1 44542U 19061A   24326.31150595  .00000001  00000+0  00000+0 0  9991",
            "Line2": "2 44542  54.4249 202.0542 0009011  12.5689 347.5367  1.86229413 35128",
            "SatelliteNumber": "44542",
            "Classification": "U",
            "LaunchYear": "19",
            "LaunchNumber": "061",
            "PieceOfLaunch": "A",
            "EpochYear": "24",
            "EpochDay": 326.31150595,
            "FirstDerivativeMeanMotion": 1e-08,
            "SecondDerivativeMeanMotion": "00000+0",
            "BSTAR": "00000+0",
            "SetNumber": "999",
            "Inclination": 54.4249,
            "RAAN": 202.0542,
            "Eccentricity": 0.0009011,
            "ArgumentOfPerigee": 12.5689,
            "MeanAnomaly": 347.5367,
            "MeanMotion": 1.86229413,
            "RevolutionNumber": "3512"
        },
        {
            "Name": "BEIDOU-3 M23 (C45)",
            "Line1": "1 44543U 19061B   24327.27618487  .00000002  00000+0  00000+0 0  9998",
            "Line2": "2 44543  54.4231 201.9901 0005716   8.5433 190.9240  1.86229682 35147",
            "SatelliteNumber": "44543",
            "Classification": "U",
            "LaunchYear": "19",
            "LaunchNumber": "061",
            "PieceOfLaunch": "B",
            "EpochYear": "24",
            "EpochDay": 327.27618487,
            "FirstDerivativeMeanMotion": 2e-08,
            "SecondDerivativeMeanMotion": "00000+0",
            "BSTAR": "00000+0",
            "SetNumber": "999",
            "Inclination": 54.4231,
            "RAAN": 201.9901,
            "Eccentricity": 0.0005716,
            "ArgumentOfPerigee": 8.5433,
            "MeanAnomaly": 190.924,
            "MeanMotion": 1.86229682,
            "RevolutionNumber": "3514"
        },
        {
            "Name": "BEIDOU-3 IGSO-3 (C40)",
            "Line1": "1 44709U 19073A   24327.30054644 -.00000197  00000+0  00000+0 0  9994",
            "Line2": "2 44709  55.7848 287.0479 0040268 190.7487 169.1142  1.00253978 18723",
            "SatelliteNumber": "44709",
            "Classification": "U",
            "LaunchYear": "19",
            "LaunchNumber": "073",
            "PieceOfLaunch": "A",
            "EpochYear": "24",
            "EpochDay": 327.30054644,
            "FirstDerivativeMeanMotion": -1.97e-06,
            "SecondDerivativeMeanMotion": "00000+0",
            "BSTAR": "00000+0",
            "SetNumber": "999",
            "Inclination": 55.7848,
            "RAAN": 287.0479,
            "Eccentricity": 0.0040268,
            "ArgumentOfPerigee": 190.7487,
            "MeanAnomaly": 169.1142,
            "MeanMotion": 1.00253978,
            "RevolutionNumber": "1872"
        },
        {
            "Name": "BEIDOU-3 M22 (C44)",
            "Line1": "1 44793U 19078A   24327.22972668 -.00000075  00000+0  00000+0 0  9993",
            "Line2": "2 44793  54.4407 319.8662 0005378  10.9273 349.0910  1.86232100 33996",
            "SatelliteNumber": "44793",
            "Classification": "U",
            "LaunchYear": "19",
            "LaunchNumber": "078",
            "PieceOfLaunch": "A",
            "EpochYear": "24",
            "EpochDay": 327.22972668,
            "FirstDerivativeMeanMotion": -7.5e-07,
            "SecondDerivativeMeanMotion": "00000+0",
            "BSTAR": "00000+0",
            "SetNumber": "999",
            "Inclination": 54.4407,
            "RAAN": 319.8662,
            "Eccentricity": 0.0005378,
            "ArgumentOfPerigee": 10.9273,
            "MeanAnomaly": 349.091,
            "MeanMotion": 1.862321,
            "RevolutionNumber": "3399"
        },
        {
            "Name": "BEIDOU-3 M21 (C43)",
            "Line1": "1 44794U 19078B   24327.35910703 -.00000075  00000+0  00000+0 0  9990",
            "Line2": "2 44794  54.4142 319.8344 0003599 354.4648   5.5380  1.86232618 34007",
            "SatelliteNumber": "44794",
            "Classification": "U",
            "LaunchYear": "19",
            "LaunchNumber": "078",
            "PieceOfLaunch": "B",
            "EpochYear": "24",
            "EpochDay": 327.35910703,
            "FirstDerivativeMeanMotion": -7.5e-07,
            "SecondDerivativeMeanMotion": "00000+0",
            "BSTAR": "00000+0",
            "SetNumber": "999",
            "Inclination": 54.4142,
            "RAAN": 319.8344,
            "Eccentricity": 0.0003599,
            "ArgumentOfPerigee": 354.4648,
            "MeanAnomaly": 5.538,
            "MeanMotion": 1.86232618,
            "RevolutionNumber": "3400"
        },
        {
            "Name": "BEIDOU-3 M19 (C41)",
            "Line1": "1 44864U 19090A   24326.55437682 -.00000016  00000+0  00000+0 0  9998",
            "Line2": "2 44864  56.0592  81.7990 0016575 278.9215  93.6324  1.86231552 33564",
            "SatelliteNumber": "44864",
            "Classification": "U",
            "LaunchYear": "19",
            "LaunchNumber": "090",
            "PieceOfLaunch": "A",
            "EpochYear": "24",
            "EpochDay": 326.55437682,
            "FirstDerivativeMeanMotion": -1.6e-07,
            "SecondDerivativeMeanMotion": "00000+0",
            "BSTAR": "00000+0",
            "SetNumber": "999",
            "Inclination": 56.0592,
            "RAAN": 81.799,
            "Eccentricity": 0.0016575,
            "ArgumentOfPerigee": 278.9215,
            "MeanAnomaly": 93.6324,
            "MeanMotion": 1.86231552,
            "RevolutionNumber": "3356"
        },
        {
            "Name": "BEIDOU-3 M20 (C42)",
            "Line1": "1 44865U 19090B   24327.44192382 -.00000016  00000+0  00000+0 0  9993",
            "Line2": "2 44865  56.0617  81.8031 0013969 292.3888  44.9160  1.86231557 33562",
            "SatelliteNumber": "44865",
            "Classification": "U",
            "LaunchYear": "19",
            "LaunchNumber": "090",
            "PieceOfLaunch": "B",
            "EpochYear": "24",
            "EpochDay": 327.44192382,
            "FirstDerivativeMeanMotion": -1.6e-07,
            "SecondDerivativeMeanMotion": "00000+0",
            "BSTAR": "00000+0",
            "SetNumber": "999",
            "Inclination": 56.0617,
            "RAAN": 81.8031,
            "Eccentricity": 0.0013969,
            "ArgumentOfPerigee": 292.3888,
            "MeanAnomaly": 44.916,
            "MeanMotion": 1.86231557,
            "RevolutionNumber": "3356"
        },
        {
            "Name": "BEIDOU-3 G2 (C60)",
            "Line1": "1 45344U 20017A   24327.57271750 -.00000137  00000+0  00000+0 0  9992",
            "Line2": "2 45344   2.5353  35.1223 0004548 217.8683  95.2679  1.00271471 17528",
            "SatelliteNumber": "45344",
            "Classification": "U",
            "LaunchYear": "20",
            "LaunchNumber": "017",
            "PieceOfLaunch": "A",
            "EpochYear": "24",
            "EpochDay": 327.5727175,
            "FirstDerivativeMeanMotion": -1.37e-06,
            "SecondDerivativeMeanMotion": "00000+0",
            "BSTAR": "00000+0",
            "SetNumber": "999",
            "Inclination": 2.5353,
            "RAAN": 35.1223,
            "Eccentricity": 0.0004548,
            "ArgumentOfPerigee": 217.8683,
            "MeanAnomaly": 95.2679,
            "MeanMotion": 1.00271471,
            "RevolutionNumber": "1752"
        },
        {
            "Name": "BEIDOU-3 G3 (C61)",
            "Line1": "1 45807U 20040A   24327.82235267 -.00000348  00000+0  00000+0 0  9997",
            "Line2": "2 45807   1.0899  56.3035 0003320 299.1133 113.4741  1.00275526 16355",
            "SatelliteNumber": "45807",
            "Classification": "U",
            "LaunchYear": "20",
            "LaunchNumber": "040",
            "PieceOfLaunch": "A",
            "EpochYear": "24",
            "EpochDay": 327.82235267,
            "FirstDerivativeMeanMotion": -3.48e-06,
            "SecondDerivativeMeanMotion": "00000+0",
            "BSTAR": "00000+0",
            "SetNumber": "999",
            "Inclination": 1.0899,
            "RAAN": 56.3035,
            "Eccentricity": 0.000332,
            "ArgumentOfPerigee": 299.1133,
            "MeanAnomaly": 113.4741,
            "MeanMotion": 1.00275526,
            "RevolutionNumber": "1635"
        },
        {
            "Name": "BEIDOU-3 G4 (C62)",
            "Line1": "1 56564U 23066A   24327.55119036 -.00000108  00000+0  00000+0 0  9999",
            "Line2": "2 56564   1.7304 289.0163 0004556 259.4678 232.0373  1.00271718  5667",
            "SatelliteNumber": "56564",
            "Classification": "U",
            "LaunchYear": "23",
            "LaunchNumber": "066",
            "PieceOfLaunch": "A",
            "EpochYear": "24",
            "EpochDay": 327.55119036,
            "FirstDerivativeMeanMotion": -1.08e-06,
            "SecondDerivativeMeanMotion": "00000+0",
            "BSTAR": "00000+0",
            "SetNumber": "999",
            "Inclination": 1.7304,
            "RAAN": 289.0163,
            "Eccentricity": 0.0004556,
            "ArgumentOfPerigee": 259.4678,
            "MeanAnomaly": 232.0373,
            "MeanMotion": 1.00271718,
            "RevolutionNumber": "566"
        }
    ]
}